<?xml version="1.0" encoding="UTF-8"?>
<ndm xmlns:xsi="http://www.w3.org/2001/XMLSchema-instance" xsi:noNamespaceSchemaLocation="https://sanaregistry.org/r/ndmxml_unqualified/ndmxml-2.0.0-master-2.0.xsd">
<omm id="CCSDS_OMM_VERS" version="2.0">
<header><CREATION_DATE/><ORIGINATOR/></header><body><segment><metadata><OBJECT_NAME>IRIDIUM 39</OBJECT_NAME><OBJECT_ID>1997-069D</OBJECT_ID><CENTER_NAME>EARTH</CENTER_NAME><REF_FRAME>TEME</REF_FRAME><TIME_SYSTEM>UTC</TIME_SYSTEM><MEAN_ELEMENT_THEORY>SGP4</MEAN_ELEMENT_THEORY></metadata><data><meanElements><EPOCH>2025-02-19T14:25:55.509024</EPOCH><MEAN_MOTION>14.48915431</MEAN_MOTION><ECCENTRICITY>.0017454</ECCENTRICITY><INCLINATION>86.3860</INCLINATION><RA_OF_ASC_NODE>261.5484</RA_OF_ASC_NODE><ARG_OF_PERICENTER>346.2374</ARG_OF_PERICENTER><MEAN_ANOMALY>13.8352</MEAN_ANOMALY></meanElements><tleParameters><EPHEMERIS_TYPE>0</EPHEMERIS_TYPE><CLASSIFICATION_TYPE>U</CLASSIFICATION_TYPE><NORAD_CAT_ID>25042</NORAD_CAT_ID><ELEMENT_SET_NO>999</ELEMENT_SET_NO><REV_AT_EPOCH>43193</REV_AT_EPOCH><BSTAR>.31459E-3</BSTAR><MEAN_MOTION_DOT>.1212E-4</MEAN_MOTION_DOT><MEAN_MOTION_DDOT>0</MEAN_MOTION_DDOT></tleParameters></data></segment></body></omm>
<omm id="CCSDS_OMM_VERS" version="2.0">
<header><CREATION_DATE/><ORIGINATOR/></header><body><segment><metadata><OBJECT_NAME>IRIDIUM 38</OBJECT_NAME><OBJECT_ID>1997-069E</OBJECT_ID><CENTER_NAME>EARTH</CENTER_NAME><REF_FRAME>TEME</REF_FRAME><TIME_SYSTEM>UTC</TIME_SYSTEM><MEAN_ELEMENT_THEORY>SGP4</MEAN_ELEMENT_THEORY></metadata><data><meanElements><EPOCH>2025-02-19T13:45:11.166624</EPOCH><MEAN_MOTION>14.37924029</MEAN_MOTION><ECCENTRICITY>.0003742</ECCENTRICITY><INCLINATION>86.3922</INCLINATION><RA_OF_ASC_NODE>282.6659</RA_OF_ASC_NODE><ARG_OF_PERICENTER>104.4644</ARG_OF_PERICENTER><MEAN_ANOMALY>255.6970</MEAN_ANOMALY></meanElements><tleParameters><EPHEMERIS_TYPE>0</EPHEMERIS_TYPE><CLASSIFICATION_TYPE>U</CLASSIFICATION_TYPE><NORAD_CAT_ID>25043</NORAD_CAT_ID><ELEMENT_SET_NO>999</ELEMENT_SET_NO><REV_AT_EPOCH>42931</REV_AT_EPOCH><BSTAR>.27447E-3</BSTAR><MEAN_MOTION_DOT>.848E-5</MEAN_MOTION_DOT><MEAN_MOTION_DDOT>0</MEAN_MOTION_DDOT></tleParameters></data></segment></body></omm>
<omm id="CCSDS_OMM_VERS" version="2.0">
<header><CREATION_DATE/><ORIGINATOR/></header><body><segment><metadata><OBJECT_NAME>IRIDIUM 42</OBJECT_NAME><OBJECT_ID>1997-077A</OBJECT_ID><CENTER_NAME>EARTH</CENTER_NAME><REF_FRAME>TEME</REF_FRAME><TIME_SYSTEM>UTC</TIME_SYSTEM><MEAN_ELEMENT_THEORY>SGP4</MEAN_ELEMENT_THEORY></metadata><data><meanElements><EPOCH>2025-02-19T13:47:33.849312</EPOCH><MEAN_MOTION>14.36175579</MEAN_MOTION><ECCENTRICITY>.0002541</ECCENTRICITY><INCLINATION>86.3936</INCLINATION><RA_OF_ASC_NODE>288.6946</RA_OF_ASC_NODE><ARG_OF_PERICENTER>99.1325</ARG_OF_PERICENTER><MEAN_ANOMALY>261.0159</MEAN_ANOMALY></meanElements><tleParameters><EPHEMERIS_TYPE>0</EPHEMERIS_TYPE><CLASSIFICATION_TYPE>U</CLASSIFICATION_TYPE><NORAD_CAT_ID>25077</NORAD_CAT_ID><ELEMENT_SET_NO>999</ELEMENT_SET_NO><REV_AT_EPOCH>42431</REV_AT_EPOCH><BSTAR>.22966E-3</BSTAR><MEAN_MOTION_DOT>.689E-5</MEAN_MOTION_DOT><MEAN_MOTION_DDOT>0</MEAN_MOTION_DDOT></tleParameters></data></segment></body></omm>
<omm id="CCSDS_OMM_VERS" version="2.0">
<header><CREATION_DATE/><ORIGINATOR/></header><body><segment><metadata><OBJECT_NAME>IRIDIUM 44</OBJECT_NAME><OBJECT_ID>1997-077B</OBJECT_ID><CENTER_NAME>EARTH</CENTER_NAME><REF_FRAME>TEME</REF_FRAME><TIME_SYSTEM>UTC</TIME_SYSTEM><MEAN_ELEMENT_THEORY>SGP4</MEAN_ELEMENT_THEORY></metadata><data><meanElements><EPOCH>2025-02-19T13:38:22.003008</EPOCH><MEAN_MOTION>14.40047558</MEAN_MOTION><ECCENTRICITY>.0003782</ECCENTRICITY><INCLINATION>86.3911</INCLINATION><RA_OF_ASC_NODE>270.9157</RA_OF_ASC_NODE><ARG_OF_PERICENTER>72.1046</ARG_OF_PERICENTER><MEAN_ANOMALY>288.0565</MEAN_ANOMALY></meanElements><tleParameters><EPHEMERIS_TYPE>0</EPHEMERIS_TYPE><CLASSIFICATION_TYPE>U</CLASSIFICATION_TYPE><NORAD_CAT_ID>25078</NORAD_CAT_ID><ELEMENT_SET_NO>999</ELEMENT_SET_NO><REV_AT_EPOCH>42677</REV_AT_EPOCH><BSTAR>.26732E-3</BSTAR><MEAN_MOTION_DOT>.862E-5</MEAN_MOTION_DOT><MEAN_MOTION_DDOT>0</MEAN_MOTION_DDOT></tleParameters></data></segment></body></omm>
<omm id="CCSDS_OMM_VERS" version="2.0">
<header><CREATION_DATE/><ORIGINATOR/></header><body><segment><metadata><OBJECT_NAME>IRIDIUM 45</OBJECT_NAME><OBJECT_ID>1997-082A</OBJECT_ID><CENTER_NAME>EARTH</CENTER_NAME><REF_FRAME>TEME</REF_FRAME><TIME_SYSTEM>UTC</TIME_SYSTEM><MEAN_ELEMENT_THEORY>SGP4</MEAN_ELEMENT_THEORY></metadata><data><meanElements><EPOCH>2025-02-19T14:02:17.355840</EPOCH><MEAN_MOTION>15.16590786</MEAN_MOTION><ECCENTRICITY>.013102</ECCENTRICITY><INCLINATION>86.3582</INCLINATION><RA_OF_ASC_NODE>104.7801</RA_OF_ASC_NODE><ARG_OF_PERICENTER>51.6935</ARG_OF_PERICENTER><MEAN_ANOMALY>309.6001</MEAN_ANOMALY></meanElements><tleParameters><EPHEMERIS_TYPE>0</EPHEMERIS_TYPE><CLASSIFICATION_TYPE>U</CLASSIFICATION_TYPE><NORAD_CAT_ID>25104</NORAD_CAT_ID><ELEMENT_SET_NO>999</ELEMENT_SET_NO><REV_AT_EPOCH>43418</REV_AT_EPOCH><BSTAR>.86688E-3</BSTAR><MEAN_MOTION_DOT>.21206E-3</MEAN_MOTION_DOT><MEAN_MOTION_DDOT>0</MEAN_MOTION_DDOT></tleParameters></data></segment></body></omm>
<omm id="CCSDS_OMM_VERS" version="2.0">
<header><CREATION_DATE/><ORIGINATOR/></header><body><segment><metadata><OBJECT_NAME>IRIDIUM 24</OBJECT_NAME><OBJECT_ID>1997-082B</OBJECT_ID><CENTER_NAME>EARTH</CENTER_NAME><REF_FRAME>TEME</REF_FRAME><TIME_SYSTEM>UTC</TIME_SYSTEM><MEAN_ELEMENT_THEORY>SGP4</MEAN_ELEMENT_THEORY></metadata><data><meanElements><EPOCH>2025-02-19T14:56:42.769536</EPOCH><MEAN_MOTION>14.41896477</MEAN_MOTION><ECCENTRICITY>.001357</ECCENTRICITY><INCLINATION>86.3934</INCLINATION><RA_OF_ASC_NODE>130.1738</RA_OF_ASC_NODE><ARG_OF_PERICENTER>105.0963</ARG_OF_PERICENTER><MEAN_ANOMALY>255.1740</MEAN_ANOMALY></meanElements><tleParameters><EPHEMERIS_TYPE>0</EPHEMERIS_TYPE><CLASSIFICATION_TYPE>U</CLASSIFICATION_TYPE><NORAD_CAT_ID>25105</NORAD_CAT_ID><ELEMENT_SET_NO>999</ELEMENT_SET_NO><REV_AT_EPOCH>42627</REV_AT_EPOCH><BSTAR>.30351E-3</BSTAR><MEAN_MOTION_DOT>.1014E-4</MEAN_MOTION_DOT><MEAN_MOTION_DDOT>0</MEAN_MOTION_DDOT></tleParameters></data></segment></body></omm>
<omm id="CCSDS_OMM_VERS" version="2.0">
<header><CREATION_DATE/><ORIGINATOR/></header><body><segment><metadata><OBJECT_NAME>IRIDIUM 51</OBJECT_NAME><OBJECT_ID>1998-018A</OBJECT_ID><CENTER_NAME>EARTH</CENTER_NAME><REF_FRAME>TEME</REF_FRAME><TIME_SYSTEM>UTC</TIME_SYSTEM><MEAN_ELEMENT_THEORY>SGP4</MEAN_ELEMENT_THEORY></metadata><data><meanElements><EPOCH>2025-02-19T14:52:16.228128</EPOCH><MEAN_MOTION>15.29913344</MEAN_MOTION><ECCENTRICITY>.0103055</ECCENTRICITY><INCLINATION>86.3865</INCLINATION><RA_OF_ASC_NODE>113.6212</RA_OF_ASC_NODE><ARG_OF_PERICENTER>340.1389</ARG_OF_PERICENTER><MEAN_ANOMALY>19.5858</MEAN_ANOMALY></meanElements><tleParameters><EPHEMERIS_TYPE>0</EPHEMERIS_TYPE><CLASSIFICATION_TYPE>U</CLASSIFICATION_TYPE><NORAD_CAT_ID>25262</NORAD_CAT_ID><ELEMENT_SET_NO>999</ELEMENT_SET_NO><REV_AT_EPOCH>42899</REV_AT_EPOCH><BSTAR>.11902E-2</BSTAR><MEAN_MOTION_DOT>.40738E-3</MEAN_MOTION_DOT><MEAN_MOTION_DDOT>0</MEAN_MOTION_DDOT></tleParameters></data></segment></body></omm>
<omm id="CCSDS_OMM_VERS" version="2.0">
<header><CREATION_DATE/><ORIGINATOR/></header><body><segment><metadata><OBJECT_NAME>IRIDIUM 57</OBJECT_NAME><OBJECT_ID>1998-019B</OBJECT_ID><CENTER_NAME>EARTH</CENTER_NAME><REF_FRAME>TEME</REF_FRAME><TIME_SYSTEM>UTC</TIME_SYSTEM><MEAN_ELEMENT_THEORY>SGP4</MEAN_ELEMENT_THEORY></metadata><data><meanElements><EPOCH>2025-02-19T11:10:24.784032</EPOCH><MEAN_MOTION>14.35740120</MEAN_MOTION><ECCENTRICITY>.0002114</ECCENTRICITY><INCLINATION>86.4005</INCLINATION><RA_OF_ASC_NODE>194.5287</RA_OF_ASC_NODE><ARG_OF_PERICENTER>94.3485</ARG_OF_PERICENTER><MEAN_ANOMALY>265.7953</MEAN_ANOMALY></meanElements><tleParameters><EPHEMERIS_TYPE>0</EPHEMERIS_TYPE><CLASSIFICATION_TYPE>U</CLASSIFICATION_TYPE><NORAD_CAT_ID>25273</NORAD_CAT_ID><ELEMENT_SET_NO>999</ELEMENT_SET_NO><REV_AT_EPOCH>40789</REV_AT_EPOCH><BSTAR>.34798E-3</BSTAR><MEAN_MOTION_DOT>.1025E-4</MEAN_MOTION_DOT><MEAN_MOTION_DDOT>0</MEAN_MOTION_DDOT></tleParameters></data></segment></body></omm>

</ndm>
