IRIDIUM 39              
1 25042U 97069D   25050.60133691  .00001212  00000+0  31459-3 0  9995
2 25042  86.3860 261.5484 0017454 346.2374  13.8352 14.48915431431938
IRIDIUM 38              
1 25043U 97069E   25050.57304591  .00000848  00000+0  27447-3 0  9997
2 25043  86.3922 282.6659 0003742 104.4644 255.6970 14.37924029429317
IRIDIUM 42              
1 25077U 97077A   25050.57469733  .00000689  00000+0  22966-3 0  9997
2 25077  86.3936 288.6946 0002541  99.1325 261.0159 14.36175579424318
IRIDIUM 44              
1 25078U 97077B   25050.56831022  .00000862  00000+0  26732-3 0  9999
2 25078  86.3911 270.9157 0003782  72.1046 288.0565 14.40047558426771
IRIDIUM 45              
1 25104U 97082A   25050.58492310  .00021206  00000+0  86688-3 0  9991
2 25104  86.3582 104.7801 0131020  51.6935 309.6001 15.16590786434180
IRIDIUM 24              
1 25105U 97082B   25050.62271724  .00001014  00000+0  30351-3 0  9992
2 25105  86.3934 130.1738 0013570 105.0963 255.1740 14.41896477426277
IRIDIUM 51              
1 25262U 98018A   25050.61963227  .00040738  00000+0  11902-2 0  9997
2 25262  86.3865 113.6212 0103055 340.1389  19.5858 15.29913344428992
IRIDIUM 57              
1 25273U 98019B   25050.46556463  .00001025  00000+0  34798-3 0  9998
2 25273  86.4005 194.5287 0002114  94.3485 265.7953 14.35740120407893
